{"type": "FeatureCollection", "features": [ {"type": "Feature", "properties": {"norad_id": 66800, "name": "STARLINK-35996", "group": "last-30-days", "lat": -38.186745531946706, "lon": 136.27628609700133, "alt_km": 406.63585696176233, "timestamp": "2025-12-22T08:58:19.047290+00:00", "meta": {"OBJECT_NAME": "STARLINK-35996", "OBJECT_ID": "2025-278K", "EPOCH": "2025-12-22T04:00:01.998720", "MEAN_MOTION": 15.55149234, "ECCENTRICITY": 0.0001207, "INCLINATION": 42.999, "RA_OF_ASC_NODE": 195.0718, "ARG_OF_PERICENTER": 269.5345, "MEAN_ANOMALY": 304.6876, "EPHEMERIS_TYPE": 0, "CLASSIFICATION_TYPE": "U", "NORAD_CAT_ID": 66800, "ELEMENT_SET_NO": 999, "REV_AT_EPOCH": 426, "BSTAR": -0.033295, "MEAN_MOTION_DOT": -0.02055409, "MEAN_MOTION_DDOT": 0}, "tle": {"line1": "1 66800U 25278K   25356.16668980 -.02055409  00000+0 -33295-1 0  9998", "line2": "2 66800  42.9990 195.0718 0001207 269.5345 304.6876 15.55149234  4265"}}, "geometry": {"type": "Point", "coordinates": [136.27628609700133, -38.186745531946706]}}, {"type": "Feature", "properties": {"norad_id": 66801, "name": "STARLINK-36080", "group": "last-30-days", "lat": -34.18154343818675, "lon": 147.0401411375906, "alt_km": 406.53040964477805, "timestamp": "2025-12-22T08:58:19.047303+00:00", "meta": {"OBJECT_NAME": "STARLINK-36080", "OBJECT_ID": "2025-278L", "EPOCH": "2025-12-22T04:00:01.998720", "MEAN_MOTION": 15.55141661, "ECCENTRICITY": 0.000124, "INCLINATION": 42.9995, "RA_OF_ASC_NODE": 195.0464, "ARG_OF_PERICENTER": 266.3343, "MEAN_ANOMALY": 317.4787, "EPHEMERIS_TYPE": 0, "CLASSIFICATION_TYPE": "U", "NORAD_CAT_ID": 66801, "ELEMENT_SET_NO": 999, "REV_AT_EPOCH": 447, "BSTAR": -0.033154, "MEAN_MOTION_DOT": -0.02047134, "MEAN_MOTION_DDOT": 0}, "tle": {"line1": "1 66801U 25278L   25356.16668980 -.02047134  00000+0 -33154-1 0  9999", "line2": "2 66801  42.9995 195.0464 0001240 266.3343 317.4787 15.55141661  4471"}}, "geometry": {"type": "Point", "coordinates": [147.0401411375906, -34.18154343818675]}}, {"type": "Feature", "properties": {"norad_id": 66802, "name": "STARLINK-35604", "group": "last-30-days", "lat": -38.86427750187635, "lon": 133.992586252724, "alt_km": 406.6169325033552, "timestamp": "2025-12-22T08:58:19.047313+00:00", "meta": {"OBJECT_NAME": "STARLINK-35604", "OBJECT_ID": "2025-278M", "EPOCH": "2025-12-22T04:00:01.998720", "MEAN_MOTION": 15.55142947, "ECCENTRICITY": 0.0001327, "INCLINATION": 42.999, "RA_OF_ASC_NODE": 195.0764, "ARG_OF_PERICENTER": 265.7524, "MEAN_ANOMALY": 306.555, "EPHEMERIS_TYPE": 0, "CLASSIFICATION_TYPE": "U", "NORAD_CAT_ID": 66802, "ELEMENT_SET_NO": 999, "REV_AT_EPOCH": 447, "BSTAR": -0.033165, "MEAN_MOTION_DOT": -0.02047884, "MEAN_MOTION_DDOT": 0}, "tle": {"line1": "1 66802U 25278M   25356.16668980 -.02047884  00000+0 -33165-1 0  9994", "line2": "2 66802  42.9990 195.0764 0001327 265.7524 306.5550 15.55142947  4475"}}, "geometry": {"type": "Point", "coordinates": [133.992586252724, -38.86427750187635]}}, {"type": "Feature", "properties": {"norad_id": 66803, "name": "STARLINK-35565", "group": "last-30-days", "lat": -37.46595130360868, "lon": 138.51533761868885, "alt_km": 406.5701450251563, "timestamp": "2025-12-22T08:58:19.047323+00:00", "meta": {"OBJECT_NAME": "STARLINK-35565", "OBJECT_ID": "2025-278N", "EPOCH": "2025-12-22T04:00:01.998720", "MEAN_MOTION": 15.55143707, "ECCENTRICITY": 0.000127, "INCLINATION": 42.9993, "RA_OF_ASC_NODE": 195.0661, "ARG_OF_PERICENTER": 270.8631, "MEAN_ANOMALY": 305.2779, "EPHEMERIS_TYPE": 0, "CLASSIFICATION_TYPE": "U", "NORAD_CAT_ID": 66803, "ELEMENT_SET_NO": 999, "REV_AT_EPOCH": 456, "BSTAR": -0.033159, "MEAN_MOTION_DOT": -0.02047569, "MEAN_MOTION_DDOT": 0}, "tle": {"line1": "1 66803U 25278N   25356.16668980 -.02047569  00000+0 -33159-1 0  9998", "line2": "2 66803  42.9993 195.0661 0001270 270.8631 305.2779 15.55143707  4562"}}, "geometry": {"type": "Point", "coordinates": [138.51533761868885, -37.46595130360868]}}, {"type": "Feature", "properties": {"norad_id": 66804, "name": "STARLINK-36038", "group": "last-30-days", "lat": -36.70115332360893, "lon": 140.7173878126069, "alt_km": 406.61167441204725, "timestamp": "2025-12-22T08:58:19.047334+00:00", "meta": {"OBJECT_NAME": "STARLINK-36038", "OBJECT_ID": "2025-278P", "EPOCH": "2025-12-22T04:00:01.998720", "MEAN_MOTION": 15.55143322, "ECCENTRICITY": 0.0001335, "INCLINATION": 42.9992, "RA_OF_ASC_NODE": 195.062, "ARG_OF_PERICENTER": 260.8659, "MEAN_ANOMALY": 317.1938, "EPHEMERIS_TYPE": 0, "CLASSIFICATION_TYPE": "U", "NORAD_CAT_ID": 66804, "ELEMENT_SET_NO": 999, "REV_AT_EPOCH": 447, "BSTAR": -0.033192, "MEAN_MOTION_DOT": -0.02049398, "MEAN_MOTION_DDOT": 0}, "tle": {"line1": "1 66804U 25278P   25356.16668980 -.02049398  00000+0 -33192-1 0  9998", "line2": "2 66804  42.9992 195.0620 0001335 260.8659 317.1938 15.55143322  4470"}}, "geometry": {"type": "Point", "coordinates": [140.7173878126069, -36.70115332360893]}}, {"type": "Feature", "properties": {"norad_id": 66805, "name": "STARLINK-36049", "group": "last-30-days", "lat": -35.05743734207745, "lon": 144.97765507772132, "alt_km": 406.5329529133951, "timestamp": "2025-12-22T08:58:19.047346+00:00", "meta": {"OBJECT_NAME": "STARLINK-36049", "OBJECT_ID": "2025-278Q", "EPOCH": "2025-12-22T04:00:01.998720", "MEAN_MOTION": 15.55136328, "ECCENTRICITY": 0.0001388, "INCLINATION": 42.9995, "RA_OF_ASC_NODE": 195.0512, "ARG_OF_PERICENTER": 262.299, "MEAN_ANOMALY": 319.5995, "EPHEMERIS_TYPE": 0, "CLASSIFICATION_TYPE": "U", "NORAD_CAT_ID": 66805, "ELEMENT_SET_NO": 999, "REV_AT_EPOCH": 447, "BSTAR": -0.033069, "MEAN_MOTION_DOT": -0.02042191, "MEAN_MOTION_DDOT": 0}, "tle": {"line1": "1 66805U 25278Q   25356.16668980 -.02042191  00000+0 -33069-1 0  9996", "line2": "2 66805  42.9995 195.0512 0001388 262.2990 319.5995 15.55136328  4473"}}, "geometry": {"type": "Point", "coordinates": [144.97765507772132, -35.05743734207745]}}, {"type": "Feature", "properties": {"norad_id": 66806, "name": "STARLINK-36069", "group": "last-30-days", "lat": -35.898554009546785, "lon": 142.8683028970003, "alt_km": 406.509695825308, "timestamp": "2025-12-22T08:58:19.047358+00:00", "meta": {"OBJECT_NAME": "STARLINK-36069", "OBJECT_ID": "2025-278R", "EPOCH": "2025-12-22T04:00:01.998720", "MEAN_MOTION": 15.55138196, "ECCENTRICITY": 0.000135, "INCLINATION": 42.9992, "RA_OF_ASC_NODE": 195.0565, "ARG_OF_PERICENTER": 268.1171, "MEAN_ANOMALY": 311.8636, "EPHEMERIS_TYPE": 0, "CLASSIFICATION_TYPE": "U", "NORAD_CAT_ID": 66806, "ELEMENT_SET_NO": 999, "REV_AT_EPOCH": 426, "BSTAR": -0.0331, "MEAN_MOTION_DOT": -0.02044034, "MEAN_MOTION_DDOT": 0}, "tle": {"line1": "1 66806U 25278R   25356.16668980 -.02044034  00000+0 -33100-1 0  9991", "line2": "2 66806  42.9992 195.0565 0001350 268.1171 311.8636 15.55138196  4263"}}, "geometry": {"type": "Point", "coordinates": [142.8683028970003, -35.898554009546785]}}, {"type": "Feature", "properties": {"norad_id": 66807, "name": "STARLINK-36000", "group": "last-30-days", "lat": -33.270920434726946, "lon": 149.06273686761017, "alt_km": 406.5095569886198, "timestamp": "2025-12-22T08:58:19.047368+00:00", "meta": {"OBJECT_NAME": "STARLINK-36000", "OBJECT_ID": "2025-278S", "EPOCH": "2025-12-22T04:00:01.998720", "MEAN_MOTION": 15.55143434, "ECCENTRICITY": 0.0001352, "INCLINATION": 42.9997, "RA_OF_ASC_NODE": 195.0429, "ARG_OF_PERICENTER": 260.5284, "MEAN_ANOMALY": 325.1987, "EPHEMERIS_TYPE": 0, "CLASSIFICATION_TYPE": "U", "NORAD_CAT_ID": 66807, "ELEMENT_SET_NO": 999, "REV_AT_EPOCH": 453, "BSTAR": -0.033174, "MEAN_MOTION_DOT": -0.02048425, "MEAN_MOTION_DDOT": 0}, "tle": {"line1": "1 66807U 25278S   25356.16668980 -.02048425  00000+0 -33174-1 0  9991", "line2": "2 66807  42.9997 195.0429 0001352 260.5284 325.1987 15.55143434  4539"}}, "geometry": {"type": "Point", "coordinates": [149.06273686761017, -33.270920434726946]}}, {"type": "Feature", "properties": {"norad_id": 66808, "name": "STARLINK-36071", "group": "last-30-days", "lat": -32.32821522646253, "lon": 151.04102320404496, "alt_km": 406.44808204063975, "timestamp": "2025-12-22T08:58:19.047381+00:00", "meta": {"OBJECT_NAME": "STARLINK-36071", "OBJECT_ID": "2025-278T", "EPOCH": "2025-12-22T04:00:01.998720", "MEAN_MOTION": 15.55147227, "ECCENTRICITY": 0.0001351, "INCLINATION": 42.9995, "RA_OF_ASC_NODE": 195.0386, "ARG_OF_PERICENTER": 262.4399, "MEAN_ANOMALY": 325.2022, "EPHEMERIS_TYPE": 0, "CLASSIFICATION_TYPE": "U", "NORAD_CAT_ID": 66808, "ELEMENT_SET_NO": 999, "REV_AT_EPOCH": 447, "BSTAR": -0.033251, "MEAN_MOTION_DOT": -0.02052952, "MEAN_MOTION_DDOT": 0}, "tle": {"line1": "1 66808U 25278T   25356.16668980 -.02052952  00000+0 -33251-1 0  9998", "line2": "2 66808  42.9995 195.0386 0001351 262.4399 325.2022 15.55147227  4475"}}, "geometry": {"type": "Point", "coordinates": [151.04102320404496, -32.32821522646253]}}, {"type": "Feature", "properties": {"norad_id": 66809, "name": "STARLINK-35979", "group": "last-30-days", "lat": -29.32275616517869, "lon": 156.73227032321674, "alt_km": 406.4194167123551, "timestamp": "2025-12-22T08:58:19.047393+00:00", "meta": {"OBJECT_NAME": "STARLINK-35979", "OBJECT_ID": "2025-278U", "EPOCH": "2025-12-22T04:00:01.998720", "MEAN_MOTION": 15.55142463, "ECCENTRICITY": 0.0001374, "INCLINATION": 42.9988, "RA_OF_ASC_NODE": 195.0226, "ARG_OF_PERICENTER": 257.0052, "MEAN_ANOMALY": 336.3917, "EPHEMERIS_TYPE": 0, "CLASSIFICATION_TYPE": "U", "NORAD_CAT_ID": 66809, "ELEMENT_SET_NO": 999, "REV_AT_EPOCH": 447, "BSTAR": -0.033196, "MEAN_MOTION_DOT": -0.0204962, "MEAN_MOTION_DDOT": 0}, "tle": {"line1": "1 66809U 25278U   25356.16668980 -.02049620  00000+0 -33196-1 0  9995", "line2": "2 66809  42.9988 195.0226 0001374 257.0052 336.3917 15.55142463  4475"}}, "geometry": {"type": "Point", "coordinates": [156.73227032321674, -29.32275616517869]}}]}